{
  "type": "FeatureCollection",
  "features": [
    {
      "type": "Feature",
      "properties": {
        "norad_id": 43262,
        "name": "GAOFEN-1 04",
        "group": "resource",
        "lat": 31.42908476203039,
        "lon": -116.78516927058472,
        "alt_km": 638.8165835954451,
        "timestamp": "2025-12-26T09:30:53.285534+00:00",
        "meta_object_name": "GAOFEN-1 04",
        "meta_object_id": "2018-031D",
        "meta_epoch": "2025-12-26T03:57:59.755680",
        "meta_mean_motion": 14.76432792,
        "meta_eccentricity": 4.85e-05,
        "meta_inclination": 98.0785,
        "meta_ra_of_asc_node": 58.0043,
        "meta_arg_of_pericenter": 66.8993,
        "meta_mean_anomaly": 293.2268,
        "meta_ephemeris_type": 0,
        "meta_classification_type": "U",
        "meta_norad_cat_id": 43262,
        "meta_element_set_no": 999,
        "meta_rev_at_epoch": 41715,
        "meta_bstar": 0.00012019,
        "meta_mean_motion_dot": 7.84e-06,
        "meta_mean_motion_ddot": 0,
        "tle_line1": "1 43262U 18031D   25360.16527495  .00000784  00000+0  12019-3 0  9999",
        "tle_line2": "2 43262  98.0785  58.0043 0000485  66.8993 293.2268 14.76432792417159"
      },
      "geometry": {
        "type": "Point",
        "coordinates": [
          -116.78516927058472,
          31.42908476203039
        ]
      }
    },
    {
      "type": "Feature",
      "properties": {
        "norad_id": 43437,
        "name": "SENTINEL-3B",
        "group": "resource",
        "lat": 34.52585204144393,
        "lon": 59.39136786836123,
        "alt_km": 799.6682311695995,
        "timestamp": "2025-12-26T09:30:53.285544+00:00",
        "meta_object_name": "SENTINEL-3B",
        "meta_object_id": "2018-039A",
        "meta_epoch": "2025-12-26T04:18:07.439328",
        "meta_mean_motion": 14.26739121,
        "meta_eccentricity": 0.0001576,
        "meta_inclination": 98.6249,
        "meta_ra_of_asc_node": 65.1708,
        "meta_arg_of_pericenter": 88.4171,
        "meta_mean_anomaly": 271.719,
        "meta_ephemeris_type": 0,
        "meta_classification_type": "U",
        "meta_norad_cat_id": 43437,
        "meta_element_set_no": 999,
        "meta_rev_at_epoch": 39945,
        "meta_bstar": 7.3873e-05,
        "meta_mean_motion_dot": 1.35e-06,
        "meta_mean_motion_ddot": 0,
        "tle_line1": "1 43437U 18039A   25360.17925277  .00000135  00000+0  73873-4 0  9998",
        "tle_line2": "2 43437  98.6249  65.1708 0001576  88.4171 271.7190 14.26739121399459"
      },
      "geometry": {
        "type": "Point",
        "coordinates": [
          59.39136786836123,
          34.52585204144393
        ]
      }
    },
    {
      "type": "Feature",
      "properties": {
        "norad_id": 43461,
        "name": "GAOFEN-5 01",
        "group": "resource",
        "lat": -56.695869872490455,
        "lon": 130.55023092033196,
        "alt_km": 698.4796476553402,
        "timestamp": "2025-12-26T09:30:53.285555+00:00",
        "meta_object_name": "GAOFEN-5 01",
        "meta_object_id": "2018-043A",
        "meta_epoch": "2025-12-25T20:55:11.303904",
        "meta_mean_motion": 14.60423654,
        "meta_eccentricity": 5.489e-05,
        "meta_inclination": 98.4347,
        "meta_ra_of_asc_node": 323.0695,
        "meta_arg_of_pericenter": 234.7022,
        "meta_mean_anomaly": 125.4127,
        "meta_ephemeris_type": 0,
        "meta_classification_type": "U",
        "meta_norad_cat_id": 43461,
        "meta_element_set_no": 999,
        "meta_rev_at_epoch": 40639,
        "meta_bstar": 0.00011249233,
        "meta_mean_motion_dot": 4.96e-06,
        "meta_mean_motion_ddot": 0,
        "tle_line1": "1 43461U 18043A   25359.87165861  .00000496  00000+0  11249-3 0  9998",
        "tle_line2": "2 43461  98.4347 323.0695 0000548 234.7022 125.4127 14.60423654406399"
      },
      "geometry": {
        "type": "Point",
        "coordinates": [
          130.55023092033196,
          -56.695869872490455
        ]
      }
    },
    {
      "type": "Feature",
      "properties": {
        "norad_id": 43484,
        "name": "GAOFEN-6",
        "group": "resource",
        "lat": -53.71786211517765,
        "lon": 74.96661322546008,
        "alt_km": 645.1760419867787,
        "timestamp": "2025-12-26T09:30:53.285566+00:00",
        "meta_object_name": "GAOFEN-6",
        "meta_object_id": "2018-048A",
        "meta_epoch": "2025-12-26T04:52:53.627808",
        "meta_mean_motion": 14.76588963,
        "meta_eccentricity": 0.0012471,
        "meta_inclination": 97.8009,
        "meta_ra_of_asc_node": 64.017,
        "meta_arg_of_pericenter": 23.43,
        "meta_mean_anomaly": 336.7476,
        "meta_ephemeris_type": 0,
        "meta_classification_type": "U",
        "meta_norad_cat_id": 43484,
        "meta_element_set_no": 999,
        "meta_rev_at_epoch": 40786,
        "meta_bstar": 0.00010831,
        "meta_mean_motion_dot": 7.07e-06,
        "meta_mean_motion_ddot": 0,
        "tle_line1": "1 43484U 18048A   25360.20339847  .00000707  00000+0  10831-3 0  9995",
        "tle_line2": "2 43484  97.8009  64.0170 0012471  23.4300 336.7476 14.76588963407861"
      },
      "geometry": {
        "type": "Point",
        "coordinates": [
          74.96661322546008,
          -53.71786211517765
        ]
      }
    },
    {
      "type": "Feature",
      "properties": {
        "norad_id": 43585,
        "name": "GAOFEN-11 01",
        "group": "resource",
        "lat": 82.20837819809398,
        "lon": -3.400471498979313,
        "alt_km": 412.84542346398575,
        "timestamp": "2025-12-26T09:30:53.285576+00:00",
        "meta_object_name": "GAOFEN-11 01",
        "meta_object_id": "2018-063A",
        "meta_epoch": "2025-12-26T04:29:29.339232",
        "meta_mean_motion": 15.49603784,
        "meta_eccentricity": 0.0003948,
        "meta_inclination": 97.1537,
        "meta_ra_of_asc_node": 63.0112,
        "meta_arg_of_pericenter": 242.832,
        "meta_mean_anomaly": 117.2529,
        "meta_ephemeris_type": 0,
        "meta_classification_type": "U",
        "meta_norad_cat_id": 43585,
        "meta_element_set_no": 999,
        "meta_rev_at_epoch": 41350,
        "meta_bstar": 0.00036884,
        "meta_mean_motion_dot": 0.00020322,
        "meta_mean_motion_ddot": 0,
        "tle_line1": "1 43585U 18063A   25360.18714513  .00020322  00000+0  36884-3 0  9999",
        "tle_line2": "2 43585  97.1537  63.0112 0003948 242.8320 117.2529 15.49603784413504"
      },
      "geometry": {
        "type": "Point",
        "coordinates": [
          -3.400471498979313,
          82.20837819809398
        ]
      }
    },
    {
      "type": "Feature",
      "properties": {
        "norad_id": 43613,
        "name": "ICESAT-2",
        "group": "resource",
        "lat": -41.694369064175085,
        "lon": 62.635899182395946,
        "alt_km": 488.62470313650556,
        "timestamp": "2025-12-26T09:30:53.285594+00:00",
        "meta_object_name": "ICESAT-2",
        "meta_object_id": "2018-070A",
        "meta_epoch": "2025-12-26T02:15:43.752960",
        "meta_mean_motion": 15.28258923,
        "meta_eccentricity": 0.0003162,
        "meta_inclination": 92.0035,
        "meta_ra_of_asc_node": 244.3414,
        "meta_arg_of_pericenter": 109.1167,
        "meta_mean_anomaly": 251.0425,
        "meta_ephemeris_type": 0,
        "meta_classification_type": "U",
        "meta_norad_cat_id": 43613,
        "meta_element_set_no": 999,
        "meta_rev_at_epoch": 40602,
        "meta_bstar": 0.00045969,
        "meta_mean_motion_dot": 0.00012657,
        "meta_mean_motion_ddot": 0,
        "tle_line1": "1 43613U 18070A   25360.09425640  .00012657  00000+0  45969-3 0  9995",
        "tle_line2": "2 43613  92.0035 244.3414 0003162 109.1167 251.0425 15.28258923406023"
      },
      "geometry": {
        "type": "Point",
        "coordinates": [
          62.635899182395946,
          -41.694369064175085
        ]
      }
    },
    {
      "type": "Feature",
      "properties": {
        "norad_id": 43719,
        "name": "HYSIS",
        "group": "resource",
        "lat": 79.81263357314381,
        "lon": 11.736981921891418,
        "alt_km": 625.6268204533108,
        "timestamp": "2025-12-26T09:30:53.285604+00:00",
        "meta_object_name": "HYSIS",
        "meta_object_id": "2018-096A",
        "meta_epoch": "2025-12-26T04:15:56.323872",
        "meta_mean_motion": 14.78680383,
        "meta_eccentricity": 7.76e-05,
        "meta_inclination": 98.0076,
        "meta_ra_of_asc_node": 63.0888,
        "meta_arg_of_pericenter": 56.1412,
        "meta_mean_anomaly": 303.9873,
        "meta_ephemeris_type": 0,
        "meta_classification_type": "U",
        "meta_norad_cat_id": 43719,
        "meta_element_set_no": 999,
        "meta_rev_at_epoch": 38185,
        "meta_bstar": 0.00015456,
        "meta_mean_motion_dot": 1.081e-05,
        "meta_mean_motion_ddot": 0,
        "tle_line1": "1 43719U 18096A   25360.17773523  .00001081  00000+0  15456-3 0  9992",
        "tle_line2": "2 43719  98.0076  63.0888 0000776  56.1412 303.9873 14.78680383381854"
      },
      "geometry": {
        "type": "Point",
        "coordinates": [
          11.736981921891418,
          79.81263357314381
        ]
      }
    }
  ]
}